EUTELSAT 139 WEST A     
1 28187U 04008A   26010.78038789  .00000112  00000+0  00000+0 0  9999
2 28187   5.4317  73.9159 0001626 267.6338 270.4735  1.00272128 79773
EUTELSAT 174A           
1 28924U 05052A   26010.91377521  .00000021  00000+0  00000+0 0  9992
2 28924   3.8211  78.5060 0006040 217.0190 317.8709  1.00274412 50751
EUTELSAT 33F            
1 29270U 06032A   26010.95710881  .00000169  00000+0  00000+0 0  9993
2 29270   1.2566  84.1038 0003499 211.1235 192.8612  1.00270769 45736
EUTELSAT HOTBIRD 13C    
1 33459U 08065A   26010.94064204 -.00000270  00000+0  00000+0 0  9999
2 33459   2.5472  81.0985 0003091 214.6701 102.9966  1.00273036 45768
EUTELSAT 36B            
1 36101U 09065A   26010.96057550  .00000126  00000+0  00000+0 0  9994
2 36101   0.0969  64.7656 0005454 227.5998 214.3964  1.00272744 59135
EUTELSAT KA-SAT 9A      
1 37258U 10069A   26010.88101500  .00000076  00000+0  00000+0 0  9994
2 37258   0.0505 340.6086 0001954 201.8182 254.1313  1.00273914 42434
EUTELSAT 7 WEST A       
1 37816U 11051A   26010.94913542 -.00000046  00000+0  00000+0 0  9998
2 37816   0.0622 351.9755 0004453 245.2989 207.5582  1.00271400 52301
EUTELSAT 16A            
1 37836U 11057A   26010.95372878  .00000118  00000+0  00000+0 0  9997
2 37836   0.0637  29.1587 0005586 263.2541 177.3813  1.00272655  5759
